{
  "type": "FeatureCollection",
  "features": [
    {
      "type": "Feature",
      "properties": {
        "norad_id": 62876,
        "name": "QZS-6 (QZSS/PRN 200)",
        "group": "gnss",
        "lat": -0.03557833621208596,
        "lon": -42.07147771756182,
        "alt_km": 35780.616594050254,
        "timestamp": "2025-12-14T09:36:23.281017+00:00",
        "meta_object_name": "QZS-6 (QZSS/PRN 200)",
        "meta_object_id": "2025-023A",
        "meta_epoch": "2025-12-13T15:35:30.950592",
        "meta_mean_motion": 1.00274384,
        "meta_eccentricity": 0.00016444,
        "meta_inclination": 0.034,
        "meta_ra_of_asc_node": 58.1829,
        "meta_arg_of_pericenter": 213.5291,
        "meta_mean_anomaly": 135.2474,
        "meta_ephemeris_type": 0,
        "meta_classification_type": "U",
        "meta_norad_cat_id": 62876,
        "meta_element_set_no": 999,
        "meta_rev_at_epoch": 309,
        "meta_bstar": 0,
        "meta_mean_motion_dot": -2.18e-06,
        "meta_mean_motion_ddot": 0,
        "tle_line1": "1 62876U 25023A   25347.64966378 -.00000218  00000+0  00000+0 0  9991",
        "tle_line2": "2 62876   0.0340  58.1829 0001644 213.5291 135.2474  1.00274384  3096"
      },
      "geometry": {
        "type": "Point",
        "coordinates": [
          -42.07147771756182,
          -0.03557833621208596
        ]
      }
    },
    {
      "type": "Feature",
      "properties": {
        "norad_id": 63130,
        "name": "COSMOS 2584 (704K)",
        "group": "gnss",
        "lat": 56.499795517408074,
        "lon": -145.70656359084978,
        "alt_km": 19128.347017468226,
        "timestamp": "2025-12-14T09:36:23.281029+00:00",
        "meta_object_name": "COSMOS 2584 (704K)",
        "meta_object_id": "2025-042A",
        "meta_epoch": "2025-12-12T20:16:48.196992",
        "meta_mean_motion": 2.13103011,
        "meta_eccentricity": 0.00076618,
        "meta_inclination": 64.9761,
        "meta_ra_of_asc_node": 79.1423,
        "meta_arg_of_pericenter": 217.4089,
        "meta_mean_anomaly": 142.5525,
        "meta_ephemeris_type": 0,
        "meta_classification_type": "U",
        "meta_norad_cat_id": 63130,
        "meta_element_set_no": 999,
        "meta_rev_at_epoch": 607,
        "meta_bstar": 0,
        "meta_mean_motion_dot": -4.4e-07,
        "meta_mean_motion_ddot": 0,
        "tle_line1": "1 63130U 25042A   25346.84500228 -.00000044  00000+0  00000+0 0  9992",
        "tle_line2": "2 63130  64.9761  79.1423 0007661 217.4089 142.5525  2.13103011  6074"
      },
      "geometry": {
        "type": "Point",
        "coordinates": [
          -145.70656359084978,
          56.499795517408074
        ]
      }
    },
    {
      "type": "Feature",
      "properties": {
        "norad_id": 64202,
        "name": "GPS BIII-8  (PRN 21)",
        "group": "gnss",
        "lat": -23.416543010395664,
        "lon": -123.83436101058092,
        "alt_km": 20188.13623832677,
        "timestamp": "2025-12-14T09:36:23.281044+00:00",
        "meta_object_name": "GPS BIII-8  (PRN 21)",
        "meta_object_id": "2025-116A",
        "meta_epoch": "2025-12-13T02:48:10.465056",
        "meta_mean_motion": 2.00558313,
        "meta_eccentricity": 0.00055988,
        "meta_inclination": 55.106,
        "meta_ra_of_asc_node": 38.6253,
        "meta_arg_of_pericenter": 307.9903,
        "meta_mean_anomaly": 54.3389,
        "meta_ephemeris_type": 0,
        "meta_classification_type": "U",
        "meta_norad_cat_id": 64202,
        "meta_element_set_no": 999,
        "meta_rev_at_epoch": 414,
        "meta_bstar": 0,
        "meta_mean_motion_dot": -9.8e-07,
        "meta_mean_motion_ddot": 0,
        "tle_line1": "1 64202U 25116A   25347.11678779 -.00000098  00000+0  00000+0 0  9992",
        "tle_line2": "2 64202  55.1060  38.6253 0005598 307.9903  54.3389  2.00558313  4146"
      },
      "geometry": {
        "type": "Point",
        "coordinates": [
          -123.83436101058092,
          -23.416543010395664
        ]
      }
    },
    {
      "type": "Feature",
      "properties": {
        "norad_id": 65590,
        "name": "COSMOS 2596 (708K)",
        "group": "gnss",
        "lat": -45.03472141378001,
        "lon": 169.60731073936032,
        "alt_km": 19125.98960969822,
        "timestamp": "2025-12-14T09:36:23.281055+00:00",
        "meta_object_name": "COSMOS 2596 (708K)",
        "meta_object_id": "2025-206B",
        "meta_epoch": "2025-12-13T03:40:38.538048",
        "meta_mean_motion": 2.13100493,
        "meta_eccentricity": 0.00140265,
        "meta_inclination": 64.7439,
        "meta_ra_of_asc_node": 321.4594,
        "meta_arg_of_pericenter": 306.3445,
        "meta_mean_anomaly": 48.5588,
        "meta_ephemeris_type": 0,
        "meta_classification_type": "U",
        "meta_norad_cat_id": 65590,
        "meta_element_set_no": 999,
        "meta_rev_at_epoch": 194,
        "meta_bstar": 0,
        "meta_mean_motion_dot": -6.1e-07,
        "meta_mean_motion_ddot": 0,
        "tle_line1": "1 65590U 25206B   25347.15322382 -.00000061  00000+0  00000+0 0  9993",
        "tle_line2": "2 65590  64.7439 321.4594 0014026 306.3445  48.5588  2.13100493  1941"
      },
      "geometry": {
        "type": "Point",
        "coordinates": [
          169.60731073936032,
          -45.03472141378001
        ]
      }
    }
  ]
}